{"type":"FeatureCollection","features":[{"type":"Feature","properties":{"nom":"Mairie de Gbéléban","type":"Administration","statut":"Démonstration"},"geometry":{"type":"Point","coordinates":[-8.1318,9.5846]}},{"type":"Feature","properties":{"nom":"École primaire exemple","type":"Éducation","statut":"Démonstration"},"geometry":{"type":"Point","coordinates":[-8.1289,9.5863]}},{"type":"Feature","properties":{"nom":"Centre de santé exemple","type":"Santé","statut":"Démonstration"},"geometry":{"type":"Point","coordinates":[-8.1342,9.5829]}}]}